[{"OBJECT_NAME":"STARLINK-31681","OBJECT_ID":"2024-090S","EPOCH":"2026-03-09T13:55:11.656128","MEAN_MOTION":15.27594916,"ECCENTRICITY":0.000127,"INCLINATION":43.0005,"RA_OF_ASC_NODE":177.1655,"ARG_OF_PERICENTER":261.5007,"MEAN_ANOMALY":98.5701,"EPHEMERIS_TYPE":0,"CLASSIFICATION_TYPE":"U","NORAD_CAT_ID":59746,"ELEMENT_SET_NO":999,"REV_AT_EPOCH":10350,"BSTAR":-2.527e-5,"MEAN_MOTION_DOT":-9.58e-6,"MEAN_MOTION_DDOT":0},{"OBJECT_NAME":"OBJECT C","OBJECT_ID":"2024-092C","EPOCH":"2026-03-09T23:10:26.961312","MEAN_MOTION":15.27308901,"ECCENTRICITY":0.00097974,"INCLINATION":97.6475,"RA_OF_ASC_NODE":197.1606,"ARG_OF_PERICENTER":169.1353,"MEAN_ANOMALY":191.0098,"EPHEMERIS_TYPE":0,"CLASSIFICATION_TYPE":"U","NORAD_CAT_ID":59775,"ELEMENT_SET_NO":999,"REV_AT_EPOCH":10042,"BSTAR":0.00057925748,"MEAN_MOTION_DOT":0.00015454,"MEAN_MOTION_DDOT":0}]
